[
    {
        "CCSDS_OMM_VERS": "3.0",
        "COMMENT": "GENERATED VIA SPACE-TRACK.ORG API",
        "CREATION_DATE": "2025-04-14T03:05:54",
        "ORIGINATOR": "18 SPCS",
        "OBJECT_NAME": "COSMOS 2460 (GLONASS)",
        "OBJECT_ID": "2010-007C",
        "CENTER_NAME": "EARTH",
        "REF_FRAME": "TEME",
        "TIME_SYSTEM": "UTC",
        "MEAN_ELEMENT_THEORY": "SGP4",
        "EPOCH": "2025-04-13T18:58:54.477984",
        "MEAN_MOTION": "2.13106325",
        "ECCENTRICITY": "0.00022450",
        "INCLINATION": "65.6564",
        "RA_OF_ASC_NODE": "328.9612",
        "ARG_OF_PERICENTER": "44.7409",
        "MEAN_ANOMALY": "318.7097",
        "EPHEMERIS_TYPE": "0",
        "CLASSIFICATION_TYPE": "U",
        "NORAD_CAT_ID": "36402",
        "ELEMENT_SET_NO": "999",
        "REV_AT_EPOCH": "11758",
        "BSTAR": "0.00000000000000",
        "MEAN_MOTION_DOT": "-0.00000047",
        "MEAN_MOTION_DDOT": "0.0000000000000",
        "SEMIMAJOR_AXIS": "25507.679",
        "PERIOD": "675.719",
        "APOAPSIS": "19135.271",
        "PERIAPSIS": "19123.818",
        "OBJECT_TYPE": "PAYLOAD",
        "RCS_SIZE": "LARGE",
        "COUNTRY_CODE": "CIS",
        "LAUNCH_DATE": "2010-03-01",
        "SITE": "TTMTR",
        "DECAY_DATE": null,
        "FILE": "4701263",
        "GP_ID": "285534880",
        "TLE_LINE0": "0 COSMOS 2460 (GLONASS)",
        "TLE_LINE1": "1 36402U 10007C   25103.79090831 -.00000047  00000-0  00000-0 0  9993",
        "TLE_LINE2": "2 36402  65.6564 328.9612 0002245  44.7409 318.7097  2.13106325117581"
    }
]